SL-4 R/B                
1 39679U 14021B   26041.54568938  .00011657  00000+0  26651-3 0  9995
2 39679  51.6062 109.6046 0098936   4.0766 356.1001 15.38295804652093
ALOS-2                  
1 39766U 14029A   26040.78644473  .00000508  00000+0  74842-4 0  9993
2 39766  97.9217 139.7863 0001402  99.3333 260.8037 14.79502299632748
YAOGAN-29               
1 41038U 15069A   26041.94027487 -.00000266  00000+0 -26106-4 0  9995
2 41038  98.0179  70.2948 0002857  79.6203 280.5333 14.82961810551916
ASTRO-H (HITOMI)        
1 41337U 16012A   26040.80293386  .00003857  00000+0  22701-3 0  9996
2 41337  30.9978 176.4765 0009881  52.0240 308.1289 15.09800486548011
HXMT (HUIYAN)           
1 42758U 17034A   26041.72124894  .00006364  00000+0  32328-3 0  9990
2 42758  43.0132 166.5648 0030786  62.9528 297.4456 15.17103864478443
CZ-2C R/B               
1 43521U 18054D   26041.88504880  .00403314  66770-4  83508-3 0  9999
2 43521  35.1279 127.4062 0012355  45.1968 314.9775 15.97957742424591
SAOCOM 1A               
1 43641U 18076A   26041.95877568  .00001268  00000+0  16579-3 0  9995
2 43641  97.8876 230.5103 0001436  84.3584 275.7793 14.82164397397403
H-2A R/B                
1 43682U 18084L   26041.58573439  .00019988  00000+0  49452-3 0  9992
2 43682  98.8763 253.2047 0026303 116.2519 244.1430 15.40152202401609
SAOCOM 1B               
1 46265U 20059A   26041.92251884  .00000325  00000+0  47385-4 0  9991
2 46265  97.8873 229.5725 0001427  86.7765 273.3611 14.82140318294787
CSS (TIANHE)            
1 48274U 21035A   26041.89257101  .00022594  00000+0  28056-3 0  9997
2 48274  41.4682  11.0651 0004356  54.5327 305.5918 15.59457517273428
COSMOS 2550             
1 48865U 21056A   26041.71701911 -.00000037  00000+0  46943-5 0  9996
2 48865  67.1432 122.5206 0008343 270.2938  89.7260 15.33825967259325
CZ-2C R/B               
1 52794U 22058K   26041.49208491  .00031762  00000+0  49853-3 0  9994
2 52794  50.1890  97.9856 0042251  85.2934 275.2859 15.52309959205903
