CCSDS_OMM_VERS = 2.0
CREATION_DATE  = 
ORIGINATOR     = 

OBJECT_NAME    = SL-4 R/B
OBJECT_ID      = 2014-021B
CENTER_NAME    = EARTH
REF_FRAME      = TEME
TIME_SYSTEM    = UTC
MEAN_ELEMENT_THEORY = SGP/SGP4

EPOCH          = 2026-02-10T13:05:47.562432
MEAN_MOTION    = 15.38295804
ECCENTRICITY   = .00989362
INCLINATION    = 51.6062
RA_OF_ASC_NODE = 109.6046
ARG_OF_PERICENTER = 4.0766
MEAN_ANOMALY   = 356.1001

EPHEMERIS_TYPE = 0
CLASSIFICATION_TYPE = U
NORAD_CAT_ID   = 39679
ELEMENT_SET_NO = 999
REV_AT_EPOCH   = 65209
BSTAR          = .26650541E-3
MEAN_MOTION_DOT = .11657E-3
MEAN_MOTION_DDOT = 0

CCSDS_OMM_VERS = 2.0
CREATION_DATE  = 
ORIGINATOR     = 

OBJECT_NAME    = ALOS-2
OBJECT_ID      = 2014-029A
CENTER_NAME    = EARTH
REF_FRAME      = TEME
TIME_SYSTEM    = UTC
MEAN_ELEMENT_THEORY = SGP/SGP4

EPOCH          = 2026-02-09T18:52:28.824672
MEAN_MOTION    = 14.79502299
ECCENTRICITY   = .0001402
INCLINATION    = 97.9217
RA_OF_ASC_NODE = 139.7863
ARG_OF_PERICENTER = 99.3333
MEAN_ANOMALY   = 260.8037

EPHEMERIS_TYPE = 0
CLASSIFICATION_TYPE = U
NORAD_CAT_ID   = 39766
ELEMENT_SET_NO = 999
REV_AT_EPOCH   = 63274
BSTAR          = .74842424E-4
MEAN_MOTION_DOT = .508E-5
MEAN_MOTION_DDOT = 0

CCSDS_OMM_VERS = 2.0
CREATION_DATE  = 
ORIGINATOR     = 

OBJECT_NAME    = YAOGAN-29
OBJECT_ID      = 2015-069A
CENTER_NAME    = EARTH
REF_FRAME      = TEME
TIME_SYSTEM    = UTC
MEAN_ELEMENT_THEORY = SGP/SGP4

EPOCH          = 2026-02-10T22:33:59.748768
MEAN_MOTION    = 14.82961810
ECCENTRICITY   = .00028572
INCLINATION    = 98.0179
RA_OF_ASC_NODE = 70.2948
ARG_OF_PERICENTER = 79.6203
MEAN_ANOMALY   = 280.5333

EPHEMERIS_TYPE = 0
CLASSIFICATION_TYPE = U
NORAD_CAT_ID   = 41038
ELEMENT_SET_NO = 999
REV_AT_EPOCH   = 55191
BSTAR          = -.26105552E-4
MEAN_MOTION_DOT = -.266E-5
MEAN_MOTION_DDOT = 0

CCSDS_OMM_VERS = 2.0
CREATION_DATE  = 
ORIGINATOR     = 

OBJECT_NAME    = ASTRO-H (HITOMI)
OBJECT_ID      = 2016-012A
CENTER_NAME    = EARTH
REF_FRAME      = TEME
TIME_SYSTEM    = UTC
MEAN_ELEMENT_THEORY = SGP/SGP4

EPOCH          = 2026-02-09T19:16:13.485504
MEAN_MOTION    = 15.09800486
ECCENTRICITY   = .00098812
INCLINATION    = 30.9978
RA_OF_ASC_NODE = 176.4765
ARG_OF_PERICENTER = 52.0240
MEAN_ANOMALY   = 308.1289

EPHEMERIS_TYPE = 0
CLASSIFICATION_TYPE = U
NORAD_CAT_ID   = 41337
ELEMENT_SET_NO = 999
REV_AT_EPOCH   = 54801
BSTAR          = .22700918E-3
MEAN_MOTION_DOT = .3857E-4
MEAN_MOTION_DDOT = 0

CCSDS_OMM_VERS = 2.0
CREATION_DATE  = 
ORIGINATOR     = 

OBJECT_NAME    = HXMT (HUIYAN)
OBJECT_ID      = 2017-034A
CENTER_NAME    = EARTH
REF_FRAME      = TEME
TIME_SYSTEM    = UTC
MEAN_ELEMENT_THEORY = SGP/SGP4

EPOCH          = 2026-02-10T17:18:35.908416
MEAN_MOTION    = 15.17103864
ECCENTRICITY   = .00307861
INCLINATION    = 43.0132
RA_OF_ASC_NODE = 166.5648
ARG_OF_PERICENTER = 62.9528
MEAN_ANOMALY   = 297.4456

EPHEMERIS_TYPE = 0
CLASSIFICATION_TYPE = U
NORAD_CAT_ID   = 42758
ELEMENT_SET_NO = 999
REV_AT_EPOCH   = 47844
BSTAR          = .32328208E-3
MEAN_MOTION_DOT = .6364E-4
MEAN_MOTION_DDOT = 0

CCSDS_OMM_VERS = 2.0
CREATION_DATE  = 
ORIGINATOR     = 

OBJECT_NAME    = CZ-2C R/B
OBJECT_ID      = 2018-054D
CENTER_NAME    = EARTH
REF_FRAME      = TEME
TIME_SYSTEM    = UTC
MEAN_ELEMENT_THEORY = SGP/SGP4

EPOCH          = 2026-02-10T21:14:28.216320
MEAN_MOTION    = 15.97957742
ECCENTRICITY   = .00123556
INCLINATION    = 35.1279
RA_OF_ASC_NODE = 127.4062
ARG_OF_PERICENTER = 45.1968
MEAN_ANOMALY   = 314.9775

EPHEMERIS_TYPE = 0
CLASSIFICATION_TYPE = U
NORAD_CAT_ID   = 43521
ELEMENT_SET_NO = 999
REV_AT_EPOCH   = 42459
BSTAR          = .83507666E-3
MEAN_MOTION_DOT = .403314E-2
MEAN_MOTION_DDOT = .66770113E-4

CCSDS_OMM_VERS = 2.0
CREATION_DATE  = 
ORIGINATOR     = 

OBJECT_NAME    = SAOCOM 1A
OBJECT_ID      = 2018-076A
CENTER_NAME    = EARTH
REF_FRAME      = TEME
TIME_SYSTEM    = UTC
MEAN_ELEMENT_THEORY = SGP/SGP4

EPOCH          = 2026-02-10T23:00:38.218752
MEAN_MOTION    = 14.82164397
ECCENTRICITY   = .00014364
INCLINATION    = 97.8876
RA_OF_ASC_NODE = 230.5103
ARG_OF_PERICENTER = 84.3584
MEAN_ANOMALY   = 275.7793

EPHEMERIS_TYPE = 0
CLASSIFICATION_TYPE = U
NORAD_CAT_ID   = 43641
ELEMENT_SET_NO = 999
REV_AT_EPOCH   = 39740
BSTAR          = .16578919E-3
MEAN_MOTION_DOT = .1268E-4
MEAN_MOTION_DDOT = 0

CCSDS_OMM_VERS = 2.0
CREATION_DATE  = 
ORIGINATOR     = 

OBJECT_NAME    = H-2A R/B
OBJECT_ID      = 2018-084L
CENTER_NAME    = EARTH
REF_FRAME      = TEME
TIME_SYSTEM    = UTC
MEAN_ELEMENT_THEORY = SGP/SGP4

EPOCH          = 2026-02-10T14:03:27.451296
MEAN_MOTION    = 15.40152202
ECCENTRICITY   = .00263031
INCLINATION    = 98.8763
RA_OF_ASC_NODE = 253.2047
ARG_OF_PERICENTER = 116.2519
MEAN_ANOMALY   = 244.1430

EPHEMERIS_TYPE = 0
CLASSIFICATION_TYPE = U
NORAD_CAT_ID   = 43682
ELEMENT_SET_NO = 999
REV_AT_EPOCH   = 40160
BSTAR          = .49451993E-3
MEAN_MOTION_DOT = .19988E-3
MEAN_MOTION_DDOT = 0

CCSDS_OMM_VERS = 2.0
CREATION_DATE  = 
ORIGINATOR     = 

OBJECT_NAME    = SAOCOM 1B
OBJECT_ID      = 2020-059A
CENTER_NAME    = EARTH
REF_FRAME      = TEME
TIME_SYSTEM    = UTC
MEAN_ELEMENT_THEORY = SGP/SGP4

EPOCH          = 2026-02-10T22:08:25.627776
MEAN_MOTION    = 14.82140318
ECCENTRICITY   = .00014277
INCLINATION    = 97.8873
RA_OF_ASC_NODE = 229.5725
ARG_OF_PERICENTER = 86.7765
MEAN_ANOMALY   = 273.3611

EPHEMERIS_TYPE = 0
CLASSIFICATION_TYPE = U
NORAD_CAT_ID   = 46265
ELEMENT_SET_NO = 999
REV_AT_EPOCH   = 29478
BSTAR          = .47384551E-4
MEAN_MOTION_DOT = .325E-5
MEAN_MOTION_DDOT = 0

CCSDS_OMM_VERS = 2.0
CREATION_DATE  = 
ORIGINATOR     = 

OBJECT_NAME    = CSS (TIANHE)
OBJECT_ID      = 2021-035A
CENTER_NAME    = EARTH
REF_FRAME      = TEME
TIME_SYSTEM    = UTC
MEAN_ELEMENT_THEORY = SGP/SGP4

EPOCH          = 2026-02-10T21:25:18.135264
MEAN_MOTION    = 15.59457517
ECCENTRICITY   = .0004356
INCLINATION    = 41.4682
RA_OF_ASC_NODE = 11.0651
ARG_OF_PERICENTER = 54.5327
MEAN_ANOMALY   = 305.5918

EPHEMERIS_TYPE = 0
CLASSIFICATION_TYPE = U
NORAD_CAT_ID   = 48274
ELEMENT_SET_NO = 999
REV_AT_EPOCH   = 27342
BSTAR          = .28056315E-3
MEAN_MOTION_DOT = .22594E-3
MEAN_MOTION_DDOT = 0

CCSDS_OMM_VERS = 2.0
CREATION_DATE  = 
ORIGINATOR     = 

OBJECT_NAME    = COSMOS 2550
OBJECT_ID      = 2021-056A
CENTER_NAME    = EARTH
REF_FRAME      = TEME
TIME_SYSTEM    = UTC
MEAN_ELEMENT_THEORY = SGP/SGP4

EPOCH          = 2026-02-10T17:12:30.451104
MEAN_MOTION    = 15.33825967
ECCENTRICITY   = .00083434
INCLINATION    = 67.1432
RA_OF_ASC_NODE = 122.5206
ARG_OF_PERICENTER = 270.2938
MEAN_ANOMALY   = 89.7260

EPHEMERIS_TYPE = 0
CLASSIFICATION_TYPE = U
NORAD_CAT_ID   = 48865
ELEMENT_SET_NO = 999
REV_AT_EPOCH   = 25932
BSTAR          = .4694349E-5
MEAN_MOTION_DOT = -.37E-6
MEAN_MOTION_DDOT = 0

CCSDS_OMM_VERS = 2.0
CREATION_DATE  = 
ORIGINATOR     = 

OBJECT_NAME    = CZ-2C R/B
OBJECT_ID      = 2022-058K
CENTER_NAME    = EARTH
REF_FRAME      = TEME
TIME_SYSTEM    = UTC
MEAN_ELEMENT_THEORY = SGP/SGP4

EPOCH          = 2026-02-10T11:48:36.136224
MEAN_MOTION    = 15.52309959
ECCENTRICITY   = .00422513
INCLINATION    = 50.1890
RA_OF_ASC_NODE = 97.9856
ARG_OF_PERICENTER = 85.2934
MEAN_ANOMALY   = 275.2859

EPHEMERIS_TYPE = 0
CLASSIFICATION_TYPE = U
NORAD_CAT_ID   = 52794
ELEMENT_SET_NO = 999
REV_AT_EPOCH   = 20590
BSTAR          = .49852864E-3
MEAN_MOTION_DOT = .31762E-3
MEAN_MOTION_DDOT = 0

